start=new Date('2022-12-14T00:00:00.000Z').valueOf();
sats=[{"PERIOD":"95.436","RA_OF_ASC_NODE":"237.7781","TLE_LINE1":"1 51721U 22016H   22347.14446750 -.00001554  00000-0 -79486-4 0  9991","SEMIMAJOR_AXIS":"6917.798","OBJECT_NAME":"STARLINK-3524","EPOCH":"2022-12-13T03:28:01.992000","ECCENTRICITY":"0.00027040","MEAN_ELEMENT_THEORY":"SGP4","BSTAR":"-0.00007948600000","NORAD_CAT_ID":"51721","GP_ID":"220279003","SITE":"AFETR","COUNTRY_CODE":"US","REV_AT_EPOCH":"4490","OBJECT_ID":"2022-016H","TIME_SYSTEM":"UTC","ARG_OF_PERICENTER":"29.0002","CLASSIFICATION_TYPE":"U","MEAN_ANOMALY":"331.1140","OBJECT_TYPE":"PAYLOAD","ELEMENT_SET_NO":"999","PERIAPSIS":"537.792","MEAN_MOTION":"15.08866982","MEAN_MOTION_DDOT":"0.0000000000000","LAUNCH_DATE":"2022-02-21","DECAY_DATE":null,"MEAN_MOTION_DOT":"-0.00001554","REF_FRAME":"TEME","FILE":"3697190","APOAPSIS":"541.533","TLE_LINE2":"2 51721  53.2162 237.7781 0002704  29.0002 331.1140 15.08866982 44901","INCLINATION":"53.2162","CENTER_NAME":"EARTH","RCS_SIZE":"LARGE","EPHEMERIS_TYPE":"0"},{"INCLINATION":"53.2165","RCS_SIZE":"LARGE","CENTER_NAME":"EARTH","EPHEMERIS_TYPE":"0","TLE_LINE2":"2 51722  53.2165 236.6493 0002777  33.5274 326.5893 15.08846467 44936","FILE":"3697190","APOAPSIS":"541.647","DECAY_DATE":null,"MEAN_MOTION_DOT":"0.00002630","REF_FRAME":"TEME","LAUNCH_DATE":"2022-02-21","PERIAPSIS":"537.805","MEAN_MOTION_DDOT":"0.0000000000000","MEAN_MOTION":"15.08846467","MEAN_ANOMALY":"326.5893","CLASSIFICATION_TYPE":"U","ELEMENT_SET_NO":"999","OBJECT_TYPE":"PAYLOAD","COUNTRY_CODE":"US","REV_AT_EPOCH":"4493","OBJECT_ID":"2022-016J","TIME_SYSTEM":"UTC","ARG_OF_PERICENTER":"33.5274","GP_ID":"220279241","NORAD_CAT_ID":"51722","SITE":"AFETR","MEAN_ELEMENT_THEORY":"SGP4","BSTAR":"0.00018324000000","EPOCH":"2022-12-13T09:28:23.665440","ECCENTRICITY":"0.00027770","SEMIMAJOR_AXIS":"6917.861","OBJECT_NAME":"STARLINK-3535","RA_OF_ASC_NODE":"236.6493","PERIOD":"95.437","TLE_LINE1":"1 51722U 22016J   22347.39471835  .00002630  00000-0  18324-3 0  9998"},{"FILE":"3698003","APOAPSIS":"341.719","DECAY_DATE":null,"REF_FRAME":"TEME","MEAN_MOTION_DOT":"-0.00000738","INCLINATION":"53.2118","RCS_SIZE":"LARGE","CENTER_NAME":"EARTH","EPHEMERIS_TYPE":"0","TLE_LINE2":"2 51723  53.2118 112.5001 0002871  24.6425 335.4733 15.76703306 46704","PERIAPSIS":"337.862","MEAN_MOTION_DDOT":"0.0000000000000","MEAN_MOTION":"15.76703306","MEAN_ANOMALY":"335.4733","CLASSIFICATION_TYPE":"U","ELEMENT_SET_NO":"999","OBJECT_TYPE":"PAYLOAD","LAUNCH_DATE":"2022-02-21","MEAN_ELEMENT_THEORY":"SGP4","BSTAR":"-0.00000049376000","COUNTRY_CODE":"US","REV_AT_EPOCH":"4670","OBJECT_ID":"2022-016K","ARG_OF_PERICENTER":"24.6425","TIME_SYSTEM":"UTC","NORAD_CAT_ID":"51723","GP_ID":"220322013","SITE":"AFETR","PERIOD":"91.330","RA_OF_ASC_NODE":"112.5001","TLE_LINE1":"1 51723U 22016K   22347.70663581 -.00000738  00000-0 -49376-6 0  9998","EPOCH":"2022-12-13T16:57:33.333984","ECCENTRICITY":"0.00028710","SEMIMAJOR_AXIS":"6717.926","OBJECT_NAME":"STARLINK-3531"},{"ECCENTRICITY":"0.00026710","EPOCH":"2022-12-13T17:14:43.605600","OBJECT_NAME":"STARLINK-3529","SEMIMAJOR_AXIS":"6917.894","TLE_LINE1":"1 51724U 22016L   22347.71856025 -.00000323  00000-0 -21925-5 0  9996","PERIOD":"95.438","RA_OF_ASC_NODE":"235.2019","OBJECT_ID":"2022-016L","ARG_OF_PERICENTER":"24.6299","TIME_SYSTEM":"UTC","COUNTRY_CODE":"US","REV_AT_EPOCH":"4498","SITE":"AFETR","GP_ID":"220320768","NORAD_CAT_ID":"51724","BSTAR":"-0.00000219250000","MEAN_ELEMENT_THEORY":"SGP4","LAUNCH_DATE":"2022-02-21","MEAN_MOTION_DDOT":"0.0000000000000","MEAN_MOTION":"15.08835619","PERIAPSIS":"537.911","ELEMENT_SET_NO":"999","OBJECT_TYPE":"PAYLOAD","MEAN_ANOMALY":"335.4820","CLASSIFICATION_TYPE":"U","CENTER_NAME":"EARTH","RCS_SIZE":"LARGE","EPHEMERIS_TYPE":"0","INCLINATION":"53.2167","TLE_LINE2":"2 51724  53.2167 235.2019 0002671  24.6299 335.4820 15.08835619 44981","APOAPSIS":"541.607","FILE":"3698003","DECAY_DATE":null,"REF_FRAME":"TEME","MEAN_MOTION_DOT":"-0.00000323"},{"INCLINATION":"53.2169","EPHEMERIS_TYPE":"0","RCS_SIZE":"LARGE","CENTER_NAME":"EARTH","TLE_LINE2":"2 51725  53.2169 238.1202 0002495  29.5541 330.5592 15.08841908 44887","FILE":"3697190","APOAPSIS":"541.466","MEAN_MOTION_DOT":"-0.00002077","REF_FRAME":"TEME","DECAY_DATE":null,"LAUNCH_DATE":"2022-02-21","PERIAPSIS":"538.014","MEAN_MOTION":"15.08841908","MEAN_MOTION_DDOT":"0.0000000000000","MEAN_ANOMALY":"330.5592","CLASSIFICATION_TYPE":"U","ELEMENT_SET_NO":"999","OBJECT_TYPE":"PAYLOAD","REV_AT_EPOCH":"4488","COUNTRY_CODE":"US","ARG_OF_PERICENTER":"29.5541","TIME_SYSTEM":"UTC","OBJECT_ID":"2022-016M","NORAD_CAT_ID":"51725","GP_ID":"220279503","SITE":"AFETR","MEAN_ELEMENT_THEORY":"SGP4","BSTAR":"-0.00011241000000","EPOCH":"2022-12-13T01:36:45.653184","ECCENTRICITY":"0.00024950","SEMIMAJOR_AXIS":"6917.875","OBJECT_NAME":"STARLINK-3522","PERIOD":"95.437","RA_OF_ASC_NODE":"238.1202","TLE_LINE1":"1 51725U 22016M   22347.06719506 -.00002077  00000-0 -11241-3 0  9993"},{"TLE_LINE1":"1 51726U 22016N   22347.36251631  .00001886  00000-0  13660-3 0  9999","PERIOD":"95.438","RA_OF_ASC_NODE":"226.8024","ECCENTRICITY":"0.00028160","EPOCH":"2022-12-13T08:42:01.409184","OBJECT_NAME":"STARLINK-3527","SEMIMAJOR_AXIS":"6917.902","BSTAR":"0.00013660000000","MEAN_ELEMENT_THEORY":"SGP4","ARG_OF_PERICENTER":"27.6572","TIME_SYSTEM":"UTC","OBJECT_ID":"2022-016N","REV_AT_EPOCH":"4613","COUNTRY_CODE":"US","SITE":"AFETR","GP_ID":"220292034","NORAD_CAT_ID":"51726","MEAN_MOTION":"15.08833004","MEAN_MOTION_DDOT":"0.0000000000000","PERIAPSIS":"537.819","OBJECT_TYPE":"PAYLOAD","ELEMENT_SET_NO":"999","CLASSIFICATION_TYPE":"U","MEAN_ANOMALY":"332.4569","LAUNCH_DATE":"2022-02-21","APOAPSIS":"541.715","FILE":"3697723","MEAN_MOTION_DOT":"0.00001886","REF_FRAME":"TEME","DECAY_DATE":null,"EPHEMERIS_TYPE":"0","RCS_SIZE":"LARGE","CENTER_NAME":"EARTH","INCLINATION":"53.2160","TLE_LINE2":"2 51726  53.2160 226.8024 0002816  27.6572 332.4569 15.08833004 46138"},{"LAUNCH_DATE":"2022-02-21","MEAN_MOTION":"15.08832975","MEAN_MOTION_DDOT":"0.0000000000000","PERIAPSIS":"537.689","ELEMENT_SET_NO":"999","OBJECT_TYPE":"PAYLOAD","MEAN_ANOMALY":"337.9909","CLASSIFICATION_TYPE":"U","EPHEMERIS_TYPE":"0","RCS_SIZE":"LARGE","CENTER_NAME":"EARTH","INCLINATION":"53.2163","TLE_LINE2":"2 51727  53.2163 235.1698 0003004  22.1212 337.9909 15.08832975 44988","APOAPSIS":"541.845","FILE":"3698003","MEAN_MOTION_DOT":"-0.00000722","REF_FRAME":"TEME","DECAY_DATE":null,"ECCENTRICITY":"0.00030040","EPOCH":"2022-12-13T17:20:01.327776","OBJECT_NAME":"STARLINK-3532","SEMIMAJOR_AXIS":"6917.902","TLE_LINE1":"1 51727U 22016P   22347.72223759 -.00000722  00000-0 -27231-4 0  9990","PERIOD":"95.438","RA_OF_ASC_NODE":"235.1698","ARG_OF_PERICENTER":"22.1212","TIME_SYSTEM":"UTC","OBJECT_ID":"2022-016P","REV_AT_EPOCH":"4498","COUNTRY_CODE":"US","SITE":"AFETR","GP_ID":"220321513","NORAD_CAT_ID":"51727","BSTAR":"-0.00002723100000","MEAN_ELEMENT_THEORY":"SGP4"},{"TLE_LINE2":"2 51728  53.2171 228.0266 0002651  33.0576 327.0582 15.08849031 45036","EPHEMERIS_TYPE":"0","CENTER_NAME":"EARTH","RCS_SIZE":"LARGE","INCLINATION":"53.2171","MEAN_MOTION_DOT":"0.00000554","REF_FRAME":"TEME","DECAY_DATE":null,"APOAPSIS":"541.552","FILE":"3697190","LAUNCH_DATE":"2022-02-21","OBJECT_TYPE":"PAYLOAD","ELEMENT_SET_NO":"999","MEAN_ANOMALY":"327.0582","CLASSIFICATION_TYPE":"U","MEAN_MOTION_DDOT":"0.0000000000000","MEAN_MOTION":"15.08849031","PERIAPSIS":"537.884","SITE":"AFETR","NORAD_CAT_ID":"51728","GP_ID":"220278253","ARG_OF_PERICENTER":"33.0576","TIME_SYSTEM":"UTC","OBJECT_ID":"2022-016Q","REV_AT_EPOCH":"4503","COUNTRY_CODE":"US","BSTAR":"0.00005293900000","MEAN_ELEMENT_THEORY":"SGP4","OBJECT_NAME":"STARLINK-3448","SEMIMAJOR_AXIS":"6917.853","ECCENTRICITY":"0.00026510","EPOCH":"2022-12-13T02:09:52.941312","TLE_LINE1":"1 51728U 22016Q   22347.09019608  .00000554  00000-0  52939-4 0  9991","RA_OF_ASC_NODE":"228.0266","PERIOD":"95.437"},{"SITE":"AFETR","GP_ID":"220294922","NORAD_CAT_ID":"51729","OBJECT_ID":"2022-016R","TIME_SYSTEM":"UTC","ARG_OF_PERICENTER":"31.6765","COUNTRY_CODE":"US","REV_AT_EPOCH":"4626","BSTAR":"0.00006351800000","MEAN_ELEMENT_THEORY":"SGP4","OBJECT_NAME":"STARLINK-3523","SEMIMAJOR_AXIS":"6917.891","ECCENTRICITY":"0.00026360","EPOCH":"2022-12-13T18:19:37.720992","TLE_LINE1":"1 51729U 22016R   22347.76363103  .00000723  00000-0  63518-4 0  9991","PERIOD":"95.438","RA_OF_ASC_NODE":"225.0003","TLE_LINE2":"2 51729  53.2175 225.0003 0002636  31.6765 328.4386 15.08836577 46268","CENTER_NAME":"EARTH","RCS_SIZE":"LARGE","EPHEMERIS_TYPE":"0","INCLINATION":"53.2175","DECAY_DATE":null,"MEAN_MOTION_DOT":"0.00000723","REF_FRAME":"TEME","APOAPSIS":"541.579","FILE":"3697841","LAUNCH_DATE":"2022-02-21","OBJECT_TYPE":"PAYLOAD","ELEMENT_SET_NO":"999","CLASSIFICATION_TYPE":"U","MEAN_ANOMALY":"328.4386","MEAN_MOTION":"15.08836577","MEAN_MOTION_DDOT":"0.0000000000000","PERIAPSIS":"537.932"},{"ELEMENT_SET_NO":"999","OBJECT_TYPE":"PAYLOAD","CLASSIFICATION_TYPE":"U","MEAN_ANOMALY":"336.8394","MEAN_MOTION":"15.08823263","MEAN_MOTION_DDOT":"0.0000000000000","PERIAPSIS":"537.851","LAUNCH_DATE":"2022-02-21","MEAN_MOTION_DOT":"-0.00001132","REF_FRAME":"TEME","DECAY_DATE":null,"APOAPSIS":"541.742","FILE":"3697190","TLE_LINE2":"2 51730  53.2133 228.0632 0002812  23.2725 336.8394 15.08823263 45038","EPHEMERIS_TYPE":"0","CENTER_NAME":"EARTH","RCS_SIZE":"LARGE","INCLINATION":"53.2133","TLE_LINE1":"1 51730U 22016S   22347.08284347 -.00001132  00000-0 -53020-4 0  9994","RA_OF_ASC_NODE":"228.0632","PERIOD":"95.439","OBJECT_NAME":"STARLINK-3530","SEMIMAJOR_AXIS":"6917.932","ECCENTRICITY":"0.00028120","EPOCH":"2022-12-13T01:59:17.675808","BSTAR":"-0.00005302000000","MEAN_ELEMENT_THEORY":"SGP4","SITE":"AFETR","NORAD_CAT_ID":"51730","GP_ID":"220279242","ARG_OF_PERICENTER":"23.2725","TIME_SYSTEM":"UTC","OBJECT_ID":"2022-016S","REV_AT_EPOCH":"4503","COUNTRY_CODE":"US"}];
